ENDUROSAT ONE           
1 43551U 98067NZ  20186.35328320  .00041386  00000-0  19158-3 0  9990
2 43551  51.6307 190.9609 0002215  91.5420 268.5836 15.83040000113056
EQUISAT                 
1 43552U 98067PA  20186.48952624  .00019475  00000-0  13144-3 0  9998
2 43552  51.6311 201.0593 0002670 136.8337 223.2872 15.75108716112892
AEROCUBE 12A            
1 43556U 18046C   20186.55168952  .00001224  00000-0  54082-4 0  9992
2 43556  51.6431  23.4005 0008178   1.8316 358.2693 15.29846983109991
AEROCUBE 12B            
1 43557U 18046D   20186.55038174  .00001081  00000-0  49586-4 0  9999
2 43557  51.6433  24.1293 0008238   1.2720 358.8280 15.29559657109932
UITMSAT-1               
1 43589U 98067PD  20186.48012325  .00027623  00000-0  16060-3 0  9997
2 43589  51.6324 198.5532 0001332 138.8548 221.2553 15.78270040108666
MAYA-1                  
1 43590U 98067PE  20186.28306126  .00027617  00000-0  16068-3 0  9993
2 43590  51.6270 199.4728 0001517 124.5547 235.5597 15.78253529108569
BHUTAN-1                
1 43591U 98067PF  20186.44366246  .00028545  00000-0  16455-3 0  9992
2 43591  51.6331 198.3876 0001373 141.8493 218.2606 15.78441233108595
SIRIUSSAT-1             
1 43595U 98067PG  20186.59120589  .00022571  00000-0  14844-3 0  9993
2 43595  51.6277 203.0773 0001994  72.4813 287.6405 15.75598608107729
SIRIUSSAT-2             
1 43596U 98067PH  20186.59079791  .00022425  00000-0  14826-3 0  9990
2 43596  51.6276 203.9018 0002187  75.4089 284.7153 15.75481551107718
TANUSHA-3               
1 43597U 98067PJ  20186.54441828  .00072631  00000-0  25444-3 0  9992
2 43597  51.6250 189.0233 0003757  47.2293 312.9028 15.88567258107901
SURFSAT                 
1 43614U 18070B   20186.43895083  .00001774  00000-0  45714-4 0  9995
2 43614  93.0211 161.6078 0012291 272.7105  87.2743 15.39257116101096
CP7 (DAVE)              
1 43615U 18070C   20186.47200124  .00001624  00000-0  42065-4 0  9996
2 43615  93.0213 161.6110 0012450 271.9355  88.0473 15.39108153101096
ELFIN-B                 
1 43616U 18070D   20186.49741391  .00002558  00000-0  63227-4 0  9995
2 43616  93.0170 161.5693 0012719 273.5304  86.4496 15.40485518101142
ELFIN-A                 
1 43617U 18070E   20186.46369112  .00002630  00000-0  64587-4 0  9991
2 43617  93.0222 162.0813 0012036 269.5051  90.4825 15.40679095101143
CUBEBEL-1 (BSUSAT-1)    
1 43666U 18083E   20186.58239972  .00000581  00000-0  31659-4 0  9999
2 43666  97.4881 212.8784 0013516 304.5104 211.3244 15.18288149 93218
CICERO 10               
1 43690U 18088A   20186.40949464  .00000539  00000-0  22989-4 0  9995
2 43690  85.0377  67.1518 0012708 244.5252 115.4675 15.20251455 91339
IRVINE01                
1 43693U 18088D   20186.37891997  .00001537  00000-0  63629-4 0  9996
2 43693  85.0350  65.8105 0015834 224.3264 135.6712 15.22933636 91428
PROXIMA I               
1 43694U 18088E   20186.38231945  .00000618  00000-0  25192-4 0  9991
2 43694  85.0321  65.6588 0017633 215.8567 144.1492 15.21995650 91423
PROXIMA II              
1 43696U 18088G   20186.38052037  .00000615  00000-0  25058-4 0  9994
2 43696  85.0321  65.6637 0017685 215.7670 144.2389 15.21997498 91418
FACSAT-1                
1 43721U 18096C   20186.57376446  .00000973  00000-0  39051-4 0  9991
2 43721  97.4201 260.0550 0019082  65.1787 295.1434 15.27265025 89004
CENTAURI-2              
1 43722U 18096D   20186.46255342  .00001239  00000-0  48196-4 0  9997
2 43722  97.4213 260.2361 0019075  65.3250 294.9973 15.27802303 88997
INNOSAT-2               
1 43738U 18096V   20186.52570061  .00001976  00000-0  69263-4 0  9995
2 43738  97.4236 262.3395 0024937  70.8632 289.5305 15.30404315 89149
SIRION PATHFINDER-2     
1 43759U 18099B   20186.50862419 -.00000290  00000-0 -21047-4 0  9998
2 43759  97.7048 257.8777 0015538 123.0156 237.2560 14.95285963 86481
CORVUS-BC 4             
1 43767U 18099K   20186.45612023 -.00000100  00000-0 -39244-5 0  9994
2 43767  97.7027 257.2186 0013027 126.5903 233.6518 14.94729464 86441
MOVE-II                 
1 43780U 18099Y   20186.45342619  .00000000  00000-0  52229-5 0  9995
2 43780  97.7054 257.7592 0014677 134.1142 226.1289 14.95414825 86450
SPACEBEE-7              
1 43816U 18099BL  20186.45634208 -.00000027  00000-0  27035-5 0  9990
2 43816  97.7067 258.1640 0014751 119.7712 240.4979 14.95705323 86033
SPACEBEE-5              
1 43817U 18099BM  20186.46956360  .00000779  00000-0  73852-4 0  9998
2 43817  97.7118 258.6500 0014727 120.4300 239.8379 14.96332639 86051
SPACEBEE-6              
1 43818U 18099BN  20186.48448810  .00000869  00000-0  82634-4 0  9995
2 43818  97.7086 258.3387 0014987 119.3174 240.9547 14.95903466 86196
SHIELDS 1               
1 43850U 18104B   20186.43497897  .00000371  00000-0  14685-4 0  9991
2 43850  85.0296 164.1303 0015455  16.9146 343.2607 15.21400172 86054
STF-1                   
1 43852U 18104D   20186.44911709  .00000831  00000-0  35213-4 0  9998
2 43852  85.0339 164.6735 0015779  30.7442 329.4720 15.21311169 86037
ZACUBE-2                
1 43907U 18111AH  20186.58273599  .00000329  00000-0  16057-4 0  9997
2 43907  97.2643  85.8305 0023277  83.6141 276.7747 15.24603116 84628
LUME 1                  
1 43908U 18111AJ  20186.43617385  .00000671  00000-0  29440-4 0  9997
2 43908  97.2644  85.8707 0023037  83.5797 276.8064 15.25063957 84612
AOBA VELOX-IV           
1 43940U 19003J   20186.43835054  .00001313  00000-0  54897-4 0  9997
2 43940  97.2266 237.1340 0024483 159.2886 200.9350 15.25058805 81236
CATSAT-2                
1 44029U 98067PV  20186.42158238  .00008625  00000-0  88997-4 0  9995
2 44029  51.6372 230.0068 0003082 140.5958 219.5263 15.65713111 81186
DELPHINI                
1 44030U 98067PW  20186.49189859  .00011176  00000-0  10915-3 0  9996
2 44030  51.6328 228.1038 0002756 133.0655 227.0572 15.66738786 81185
UNITE                   
1 44031U 98067PX  20186.52442557  .00005611  00000-0  70064-4 0  9997
2 44031  51.6365 235.9057 0002768 128.6670 231.4571 15.61569232 81084
CATSAT-1                
1 44033U 98067PZ  20186.48530340  .00008934  00000-0  92001-4 0  9998
2 44033  51.6373 229.6893 0003064 137.9865 222.1366 15.65707798 81109
RAAVANA-1               
1 44329U 98067QE  20186.44679749  .00005848  00000-0  82590-4 0  9992
2 44329  51.6389 248.9449 0006106  64.1619 296.0003 15.58157897 59657
UGUISU                  
1 44330U 98067QF  20186.46022328  .00005647  00000-0  80245-4 0  9993
2 44330  51.6371 249.0263 0006129  63.0344 297.1274 15.58068065 59632
NEPALISAT-1             
1 44331U 98067QG  20186.56726616  .00005759  00000-0  81365-4 0  9994
2 44331  51.6369 248.2436 0006134  66.5626 293.6010 15.58178284 59667
SPOOQY-1                
1 44332U 98067QH  20186.44346979  .00005600  00000-0  79594-4 0  9998
2 44332  51.6381 248.9158 0005132  68.2552 291.8986 15.58079799 59601
SPACEBEE-9              
1 44370U 19037F   20186.55909275  .00005048  00000-0  11718-3 0  9995
2 44370  45.0076  20.0930 0013848 281.8844  78.0493 15.43619639 57241
SPACEBEE-8              
1 44371U 19037G   20186.58381539  .00010787  00000-0  20791-3 0  9993
2 44371  45.0075  13.5368 0012172 281.3202  78.6321 15.48010324 57321
IOD-1 GEMS              
1 44385U 98067QK  20186.53266698  .00010070  00000-0  12550-3 0  9990
2 44385  51.6392 246.5661 0002931  26.0891 334.0250 15.60581224 57163
MOVE-IIB                
1 44398U 19038N   20186.55684326  .00000743  00000-0  46316-4 0  9993
2 44398  97.5369 147.5702 0026897  69.7926 290.6194 15.12347736 55163
SONATE                  
1 44400U 19038Q   20186.52930619  .00000278  00000-0  19881-4 0  9993
2 44400  97.5409 147.5575 0026838  68.7184 291.6908 15.11967702 55153
LUCKY-7                 
1 44406U 19038W   20186.40965082  .00000337  00000-0  23173-4 0  9993
2 44406  97.5403 147.5488 0026262  68.7447 291.6584 15.12234763 55132
BEESAT 9                
1 44412U 19038AC  20186.53970576  .00000488  00000-0  31770-4 0  9997
2 44412  97.5394 147.6585 0024405  73.7721 286.6192 15.12318747 54857
JAISAT-1                
1 44419U 19038F   20186.42224964  .00000542  00000-0  34435-4 0  9997
2 44419  97.5394 147.8197 0023270  73.3769 287.0015 15.12801934 55161
SWIATOWID               
1 44426U 98067QL  20186.56268302  .00012557  00000-0  14932-3 0  9991
2 44426  51.6411 245.6944 0003348  21.5975 120.3519 15.61548585 57181
KRAKSAT                 
1 44427U 98067QM  20186.56972525  .00004430  00000-0  68989-4 0  9994
2 44427  51.6423 251.7578 0003442  26.8831 114.1943 15.56149947 57141
VCC A                   
1 44428U 98067QN  20186.44641732  .00005490  00000-0  79800-4 0  9996
2 44428  51.6396 250.4872 0002927  40.3098 319.8110 15.57511148 57155
ENTRYSAT                
1 44429U 98067QP  20186.46906463  .00006707  00000-0  92403-4 0  9990
2 44429  51.6382 249.1093 0002748  29.9534 330.1615 15.58550891 57177
VCC C                   
1 44430U 98067QQ  20186.55728923  .00008217  00000-0  10685-3 0  9994
2 44430  51.6376 247.4579 0002589  42.1588 317.9603 15.59749062 56036
VCC B                   
1 44431U 98067QR  20186.44567475  .00005589  00000-0  80989-4 0  9990
2 44431  51.6385 250.4664 0003084  39.7379 320.3838 15.57554799 57091
ATL-1                   
1 44830U 19084G   20186.56400228  .00051740  00000-0  27142-3 0  9991
2 44830  96.9715  55.9023 0025523 166.0937 194.1041 15.80139591 33155
SMOG-P                  
1 44832U 19084J   20186.35483777  .00057249  00000-0  27940-3 0  9996
2 44832  96.9712  55.8989 0024155 165.0477 195.1512 15.81738814 33138
DUCHIFAT-3              
1 44854U 19089C   20185.88000286  .00000135  00000-0  17308-4 0  9992
2 44854  36.9695   1.2757 0007776 207.4251 152.6064 14.99077043 30769
ORBITAL FACTORY 2 (OF-2)
1 45113U 19071C   20186.55944892  .00000796  00000-0  35855-4 0  9997
2 45113  51.6444 280.9112 0013459 118.5704 241.6634 15.33404035 23752
